[{"OBJECT_NAME":"STARLINK-31736","OBJECT_ID":"2024-074P","EPOCH":"2026-03-09T02:16:19.374816","MEAN_MOTION":15.27578592,"ECCENTRICITY":0.00014724,"INCLINATION":43.0078,"RA_OF_ASC_NODE":339.9225,"ARG_OF_PERICENTER":268.2918,"MEAN_ANOMALY":91.7765,"EPHEMERIS_TYPE":0,"CLASSIFICATION_TYPE":"U","NORAD_CAT_ID":59547,"ELEMENT_SET_NO":999,"REV_AT_EPOCH":10600,"BSTAR":-0.00011845765,"MEAN_MOTION_DOT":-3.52e-5,"MEAN_MOTION_DDOT":0},{"OBJECT_NAME":"SL-3 R\/B","OBJECT_ID":"1982-027B","EPOCH":"2026-03-09T22:44:40.208640","MEAN_MOTION":15.28335844,"ECCENTRICITY":0.00065199,"INCLINATION":81.188,"RA_OF_ASC_NODE":37.4466,"ARG_OF_PERICENTER":276.581,"MEAN_ANOMALY":83.4683,"EPHEMERIS_TYPE":0,"CLASSIFICATION_TYPE":"U","NORAD_CAT_ID":13121,"ELEMENT_SET_NO":999,"REV_AT_EPOCH":39859,"BSTAR":0.00030526741,"MEAN_MOTION_DOT":8.453e-5,"MEAN_MOTION_DDOT":0}]
